STARLINK-1895_new
1 17175C 20088BF  21326.12884098  .00000586  00000-0  39241-4 0  3262
2 17175  53.0532 123.1505 0001957  78.7566 185.1317 15.06399896    15
STARLINK-1895_old
1 27175C 20088BF  21325.09067817  .00001952  00000-0  13076-3 0  3253
2 27175  53.0533 127.8107 0001992  76.8061 313.9763 15.06395385    18
